{
  "type": "FeatureCollection",
  "features": [
    {
      "type": "Feature",
      "properties": {
        "norad_id": 58647,
        "name": "TIANMU-1 13",
        "group": "weather",
        "lat": -45.0687154987361,
        "lon": 21.54786045544735,
        "alt_km": 498.14598359664797,
        "timestamp": "2025-12-20T14:38:01.601052+00:00",
        "meta_object_name": "TIANMU-1 13",
        "meta_object_id": "2023-205C",
        "meta_epoch": "2025-12-20T05:22:55.865280",
        "meta_mean_motion": 15.24612187,
        "meta_eccentricity": 0.00062666,
        "meta_inclination": 97.3611,
        "meta_ra_of_asc_node": 13.7233,
        "meta_arg_of_pericenter": 233.6863,
        "meta_mean_anomaly": 126.3797,
        "meta_ephemeris_type": 0,
        "meta_classification_type": "U",
        "meta_norad_cat_id": 58647,
        "meta_element_set_no": 999,
        "meta_rev_at_epoch": 11021,
        "meta_bstar": 0.00018464785,
        "meta_mean_motion_dot": 4.485e-05,
        "meta_mean_motion_ddot": 0,
        "tle_line1": "1 58647U 23205C   25354.22425770  .00004485  00000+0  18465-3 0  9997",
        "tle_line2": "2 58647  97.3611  13.7233 0006266 233.6863 126.3797 15.24612187110216"
      },
      "geometry": {
        "type": "Point",
        "coordinates": [
          21.54786045544735,
          -45.0687154987361
        ]
      }
    },
    {
      "type": "Feature",
      "properties": {
        "norad_id": 58648,
        "name": "TIANMU-1 14",
        "group": "weather",
        "lat": 44.511308925733644,
        "lon": 6.1488516372626165,
        "alt_km": 492.9582378426994,
        "timestamp": "2025-12-20T14:38:01.601063+00:00",
        "meta_object_name": "TIANMU-1 14",
        "meta_object_id": "2023-205D",
        "meta_epoch": "2025-12-20T06:33:39.377952",
        "meta_mean_motion": 15.24595937,
        "meta_eccentricity": 0.00070094,
        "meta_inclination": 97.3543,
        "meta_ra_of_asc_node": 13.1133,
        "meta_arg_of_pericenter": 239.5139,
        "meta_mean_anomaly": 120.5407,
        "meta_ephemeris_type": 0,
        "meta_classification_type": "U",
        "meta_norad_cat_id": 58648,
        "meta_element_set_no": 999,
        "meta_rev_at_epoch": 11022,
        "meta_bstar": 0.00018772535,
        "meta_mean_motion_dot": 4.559e-05,
        "meta_mean_motion_ddot": 0,
        "tle_line1": "1 58648U 23205D   25354.27337243  .00004559  00000+0  18773-3 0  9994",
        "tle_line2": "2 58648  97.3543  13.1133 0007009 239.5139 120.5407 15.24595937110229"
      },
      "geometry": {
        "type": "Point",
        "coordinates": [
          6.1488516372626165,
          44.511308925733644
        ]
      }
    },
    {
      "type": "Feature",
      "properties": {
        "norad_id": 58660,
        "name": "TIANMU-1 19",
        "group": "weather",
        "lat": 34.74578823723504,
        "lon": 100.43180221872123,
        "alt_km": 482.692309085729,
        "timestamp": "2025-12-20T14:38:01.601074+00:00",
        "meta_object_name": "TIANMU-1 19",
        "meta_object_id": "2023-208A",
        "meta_epoch": "2025-12-20T06:37:19.367904",
        "meta_mean_motion": 15.27978319,
        "meta_eccentricity": 0.00044587,
        "meta_inclination": 97.4396,
        "meta_ra_of_asc_node": 105.2988,
        "meta_arg_of_pericenter": 219.8157,
        "meta_mean_anomaly": 140.2756,
        "meta_ephemeris_type": 0,
        "meta_classification_type": "U",
        "meta_norad_cat_id": 58660,
        "meta_element_set_no": 999,
        "meta_rev_at_epoch": 10997,
        "meta_bstar": 0.0002519617,
        "meta_mean_motion_dot": 6.805e-05,
        "meta_mean_motion_ddot": 0,
        "tle_line1": "1 58660U 23208A   25354.27591861  .00006805  00000+0  25196-3 0  9992",
        "tle_line2": "2 58660  97.4396 105.2988 0004458 219.8157 140.2756 15.27978319109975"
      },
      "geometry": {
        "type": "Point",
        "coordinates": [
          100.43180221872123,
          34.74578823723504
        ]
      }
    },
    {
      "type": "Feature",
      "properties": {
        "norad_id": 58661,
        "name": "TIANMU-1 20",
        "group": "weather",
        "lat": 36.536512166420756,
        "lon": -68.36133593877345,
        "alt_km": 475.7869724336879,
        "timestamp": "2025-12-20T14:38:01.601083+00:00",
        "meta_object_name": "TIANMU-1 20",
        "meta_object_id": "2023-208B",
        "meta_epoch": "2025-12-20T06:09:26.670816",
        "meta_mean_motion": 15.29168629,
        "meta_eccentricity": 0.00065544,
        "meta_inclination": 97.4332,
        "meta_ra_of_asc_node": 105.7345,
        "meta_arg_of_pericenter": 234.2088,
        "meta_mean_anomaly": 125.8544,
        "meta_ephemeris_type": 0,
        "meta_classification_type": "U",
        "meta_norad_cat_id": 58661,
        "meta_element_set_no": 999,
        "meta_rev_at_epoch": 11004,
        "meta_bstar": 0.00024533787,
        "meta_mean_motion_dot": 6.873e-05,
        "meta_mean_motion_ddot": 0,
        "tle_line1": "1 58661U 23208B   25354.25655869  .00006873  00000+0  24534-3 0  9990",
        "tle_line2": "2 58661  97.4332 105.7345 0006554 234.2088 125.8544 15.29168629110042"
      },
      "geometry": {
        "type": "Point",
        "coordinates": [
          -68.36133593877345,
          36.536512166420756
        ]
      }
    },
    {
      "type": "Feature",
      "properties": {
        "norad_id": 58662,
        "name": "TIANMU-1 21",
        "group": "weather",
        "lat": -38.87786778269089,
        "lon": -78.01536229327431,
        "alt_km": 473.0530261183694,
        "timestamp": "2025-12-20T14:38:01.601094+00:00",
        "meta_object_name": "TIANMU-1 21",
        "meta_object_id": "2023-208C",
        "meta_epoch": "2025-12-20T07:24:28.583424",
        "meta_mean_motion": 15.31703222,
        "meta_eccentricity": 0.0006194,
        "meta_inclination": 97.4381,
        "meta_ra_of_asc_node": 107.7289,
        "meta_arg_of_pericenter": 228.3874,
        "meta_mean_anomaly": 131.6837,
        "meta_ephemeris_type": 0,
        "meta_classification_type": "U",
        "meta_norad_cat_id": 58662,
        "meta_element_set_no": 999,
        "meta_rev_at_epoch": 11015,
        "meta_bstar": 0.00026414283,
        "meta_mean_motion_dot": 8.012e-05,
        "meta_mean_motion_ddot": 0,
        "tle_line1": "1 58662U 23208C   25354.30866416  .00008012  00000+0  26414-3 0  9995",
        "tle_line2": "2 58662  97.4381 107.7289 0006194 228.3874 131.6837 15.31703222110152"
      },
      "geometry": {
        "type": "Point",
        "coordinates": [
          -78.01536229327431,
          -38.87786778269089
        ]
      }
    },
    {
      "type": "Feature",
      "properties": {
        "norad_id": 58663,
        "name": "TIANMU-1 22",
        "group": "weather",
        "lat": 28.935753431054707,
        "lon": 101.5451015061041,
        "alt_km": 482.84384863982814,
        "timestamp": "2025-12-20T14:38:01.601120+00:00",
        "meta_object_name": "TIANMU-1 22",
        "meta_object_id": "2023-208D",
        "meta_epoch": "2025-12-20T06:38:47.164128",
        "meta_mean_motion": 15.27723577,
        "meta_eccentricity": 0.00027399,
        "meta_inclination": 97.4389,
        "meta_ra_of_asc_node": 105.3554,
        "meta_arg_of_pericenter": 247.1974,
        "meta_mean_anomaly": 112.8976,
        "meta_ephemeris_type": 0,
        "meta_classification_type": "U",
        "meta_norad_cat_id": 58663,
        "meta_element_set_no": 999,
        "meta_rev_at_epoch": 10998,
        "meta_bstar": 0.00023275069,
        "meta_mean_motion_dot": 6.23e-05,
        "meta_mean_motion_ddot": 0,
        "tle_line1": "1 58663U 23208D   25354.27693477  .00006230  00000+0  23275-3 0  9999",
        "tle_line2": "2 58663  97.4389 105.3554 0002739 247.1974 112.8976 15.27723577109985"
      },
      "geometry": {
        "type": "Point",
        "coordinates": [
          101.5451015061041,
          28.935753431054707
        ]
      }
    },
    {
      "type": "Feature",
      "properties": {
        "norad_id": 58700,
        "name": "TIANMU-1 15",
        "group": "weather",
        "lat": 66.93470787873053,
        "lon": 158.12224479792815,
        "alt_km": 489.8160585419064,
        "timestamp": "2025-12-20T14:38:01.601132+00:00",
        "meta_object_name": "TIANMU-1 15",
        "meta_object_id": "2024-004A",
        "meta_epoch": "2025-12-20T06:27:33.703776",
        "meta_mean_motion": 15.24499082,
        "meta_eccentricity": 0.00059407,
        "meta_inclination": 97.4621,
        "meta_ra_of_asc_node": 175.7103,
        "meta_arg_of_pericenter": 258.1839,
        "meta_mean_anomaly": 101.8732,
        "meta_ephemeris_type": 0,
        "meta_classification_type": "U",
        "meta_norad_cat_id": 58700,
        "meta_element_set_no": 999,
        "meta_rev_at_epoch": 10849,
        "meta_bstar": 0.00020370856,
        "meta_mean_motion_dot": 4.937e-05,
        "meta_mean_motion_ddot": 0,
        "tle_line1": "1 58700U 24004A   25354.26914009  .00004937  00000+0  20371-3 0  9998",
        "tle_line2": "2 58700  97.4621 175.7103 0005940 258.1839 101.8732 15.24499082108497"
      },
      "geometry": {
        "type": "Point",
        "coordinates": [
          158.12224479792815,
          66.93470787873053
        ]
      }
    }
  ]
}